IRIDIUM 33 DEB          
1 35051U 97051NX  25235.22088396  .00001633  00000+0  44544-3 0  9997
2 35051  86.3195  57.4240 0010471  98.7425 261.4965 14.46804225853834
IRIDIUM 33 DEB          
1 35052U 97051NY  25235.27459739  .00000438  00000+0  13744-3 0  9996
2 35052  86.3250  68.2532 0013660  89.2481 271.0282 14.38276527856731
IRIDIUM 33 DEB          
1 35080U 97051PF  25235.91427571  .00020736  00000+0  33349-2 0  9992
2 35080  86.2056 104.5891 0071592 204.5731 155.2068 14.69737901680524
IRIDIUM 33 DEB          
1 35297U 97051PM  25223.45265782  .00001666  00000+0  47759-3 0  9994
2 35297  86.3856 115.3583 0014963 184.5998 175.5068 14.44387827686467
IRIDIUM 33 DEB          
1 35299U 97051PP  25235.53709082  .00001713  00000+0  52705-3 0  9994
2 35299  86.2857  81.5634 0058206 107.5286 283.1420 14.39992266847306
IRIDIUM 33 DEB          
1 35480U 97051QA  25233.98944273  .00001408  00000+0  36592-3 0  9993
2 35480  86.3518  73.7656 0015021 118.1200 242.1524 14.48964318853980
IRIDIUM 33 DEB          
1 35484U 97051QE  25230.75598216  .00018610  00000+0  19269-2 0  9995
2 35484  86.3603  46.5692 0023311 186.1150 173.9796 14.89753254602846
IRIDIUM 33 DEB          
1 35488U 97051QJ  25235.29941502  .00007933  00000+0  10359-2 0  9990
2 35488  86.3312 352.0968 0030162  73.2441 287.2086 14.80057189866162
IRIDIUM 33 DEB          
1 35616U 97051QN  25235.88568097  .00008204  00000+0  11387-2 0  9996
2 35616  86.3545  36.1625 0010153 200.7310 159.3499 14.77779960859357
IRIDIUM 33 DEB          
1 35618U 97051QQ  25235.73883937  .00001260  00000+0  30734-3 0  9998
2 35618  86.3375  41.9818 0030032  33.3011 327.0075 14.51632738637838
IRIDIUM 33 DEB          
1 35620U 97051QS  25235.83126879  .00006614  00000+0  21371-2 0  9991
2 35620  86.3853 264.0214 0148159 257.2142 101.2462 14.32910480583757
IRIDIUM 33 DEB          
1 35622U 97051QU  25235.00072769  .00023497  00000+0  24696-2 0  9991
2 35622  86.2118 317.8552 0009721 316.5375 216.9871 14.89304434856896
IRIDIUM 33 DEB          
1 35628U 97051RA  25235.75242208  .00004247  00000+0  78601-3 0  9994
2 35628  86.3526  58.4624 0012048   1.3177 358.8065 14.65115649848208
IRIDIUM 33 DEB          
1 35631U 97051RD  25235.30165878  .00000610  00000+0  16206-3 0  9999
2 35631  86.3618  68.9420 0018607 128.0286  51.3175 14.46937319855850
IRIDIUM 33 DEB          
1 35680U 97051RJ  25232.85322083  .00002605  00000+0  11033-2 0  9991
2 35680  86.0987  71.8522 0158295 281.2002 139.1751 14.18653071590852
IRIDIUM 33 DEB          
1 35744U 97051RX  25235.63360215  .00004686  00000+0  79557-3 0  9997
2 35744  86.3316  15.5124 0021604 218.3781 141.5898 14.68852628856996
IRIDIUM 33 DEB          
1 35797U 97051SF  25235.14016592  .00009566  00000+0  12992-2 0  9998
2 35797  86.3385  21.0340 0013860 188.0501 172.0499 14.78680137856890
IRIDIUM 33 DEB          
1 35806U 97051SQ  25229.30722014  .00003300  00000+0  75125-3 0  9991
2 35806  86.3396  72.2650 0016234 104.2188 256.0825 14.55563517846155
IRIDIUM 33 DEB          
1 35809U 97051ST  25233.69509706  .00006538  00000+0  10273-2 0  9990
2 35809  86.3292  26.6486 0011635 279.6207  80.3695 14.72412526851423
IRIDIUM 33 DEB          
1 35846U 97051SW  25234.06733640  .00001101  00000+0  32589-3 0  9995
2 35846  86.3741 106.9172 0017238 181.1190 178.9975 14.42493586697043
IRIDIUM 33 DEB          
1 35848U 97051SY  25234.79206170  .00006101  00000+0  90501-3 0  9993
2 35848  86.3862  66.3126 0007294 233.0858 126.9692 14.74919270650389
IRIDIUM 33 DEB          
1 35850U 97051TA  25235.16011859  .00007451  00000+0  10966-2 0  9991
2 35850  86.3495  34.8242 0009870 223.9787 136.0647 14.75269017697105
IRIDIUM 33 DEB          
1 35911U 97051TU  25234.71649854  .00091551  00000+0  56973-2 0  9993
2 35911  86.2067  31.3387 0023069  53.8991 306.4377 15.08974667854055
IRIDIUM 33 DEB          
1 35915U 97051TY  25233.73848751  .00008168  00000+0  11631-2 0  9999
2 35915  86.3447  34.3876 0011844 231.1310 128.8853 14.76674020 64166
IRIDIUM 33 DEB          
1 35918U 97051UB  25234.97835711  .00002234  00000+0  57065-3 0  9991
2 35918  86.4029 123.7357 0025368 181.7597 238.9672 14.49916579835870
IRIDIUM 33 DEB          
1 35929U 97051UN  25235.61551037  .00016509  00000+0  15296-2 0  9990
2 35929  86.3402   4.8914 0017666  69.3217 290.9904 14.94268738861160
IRIDIUM 33 DEB          
1 36011U 97051US  25232.84609206  .00001012  00000+0  30988-3 0  9996
2 36011  86.3359  84.3353 0016982 234.8052 184.6361 14.40778770629004
IRIDIUM 33 DEB          
1 36012U 97051UT  25235.05739855  .00009269  00000+0  37666-2 0  9998
2 36012  86.4431 352.3785 0225669 255.3765 102.2304 14.14618833639038
IRIDIUM 33 DEB          
1 36028U 97051VK  25233.09534279  .00016532  00000+0  17413-2 0  9999
2 36028  86.3280 359.8172 0021057  96.1660 264.1966 14.89105848854308
IRIDIUM 33 DEB          
1 36080U 97051VM  25232.78094563  .00001613  00000+0  44891-3 0  9994
2 36080  86.3158  57.5912 0017238 175.5358 184.6002 14.45773771457670
IRIDIUM 33 DEB          
1 36083U 97051VQ  25235.83063318  .00001083  00000+0  31969-3 0  9993
2 36083  86.3382  81.8890 0024918 231.1939 128.7036 14.42556206838504
IRIDIUM 33 DEB          
1 36390U 97051VU  25235.58327478  .00005486  00000+0  87259-3 0  9990
2 36390  86.2996 350.2191 0031650 189.6798 170.3813 14.71551523646268
IRIDIUM 33 DEB          
1 36483U 97051VZ  25235.37569864  .00001099  00000+0  30812-3 0  9996
2 36483  86.3761 100.1553 0010288 129.4303 230.7811 14.45190751635376
IRIDIUM 33 DEB          
1 36490U 97051WG  25235.26451364  .00006931  00000+0  10878-2 0  9996
2 36490  86.3620  60.5814 0004719  91.6210 268.5548 14.72508651848426
IRIDIUM 33 DEB          
1 36493U 97051WK  25232.79139950  .00004835  00000+0  93839-3 0  9998
2 36493  86.3530  62.2047 0012006  29.5694 330.6194 14.63003154728513
IRIDIUM 33 DEB          
1 37548U 97051XH  25233.34931488  .00002591  00000+0  66354-3 0  9997
2 37548  86.3489  92.6757 0023981 210.3693 149.6124 14.49872631638885
IRIDIUM 33 DEB          
1 37550U 97051XK  25234.32754469  .00004207  00000+0  78520-3 0  9995
2 37550  86.3728  73.6001 0004475 120.4292 239.7363 14.64778588846866
IRIDIUM 33 DEB          
1 37562U 97051XX  25233.38473605  .00003211  00000+0  74032-3 0  9991
2 37562  86.3712  92.9777 0026361 125.6773  51.1513 14.54830358846793
IRIDIUM 33 DEB          
1 37565U 97051YA  25234.28574725  .00001583  00000+0  39685-3 0  9994
2 37565  86.3442  58.5221 0015112  97.4270 262.8653 14.50742269642067
IRIDIUM 33 DEB          
1 38017U 97051YD  25235.20911862  .00015343  00000+0  43483-2 0  9996
2 38017  86.3425 214.4150 0115819 111.5112 249.8483 14.41525113597919
IRIDIUM 33 DEB          
1 38022U 97051YJ  25228.28194582  .00002119  00000+0  65727-3 0  9997
2 38022  86.2656  68.2572 0047424  77.7480 282.9024 14.40063524674883
IRIDIUM 33 DEB          
1 38028U 97051YQ  25235.74889176  .00001140  00000+0  31486-3 0  9990
2 38028  86.3224  48.4747 0030188 129.7180 230.6690 14.45687061638915
IRIDIUM 33 DEB          
1 38228U 97051ZC  25235.37441035  .00000644  00000+0  25143-3 0  9990
2 38228  86.2908  95.8231 0063794 188.4412 296.1664 14.26976525831938
IRIDIUM 33 DEB          
1 38241U 97051ZR  25235.72878114  .00002120  00000+0  50036-3 0  9996
2 38241  86.3212  39.4991 0005281  82.4585 277.7221 14.53813654585876
IRIDIUM 33 DEB          
1 38474U 97051AAB 25235.25653583  .00001616  00000+0  41071-3 0  9991
2 38474  86.3349  58.5983 0027939  99.4856 260.9509 14.49917077637028
IRIDIUM 33 DEB          
1 39777U 97051AAJ 25235.94540185  .00003687  00000+0  85367-3 0  9993
2 39777  85.9601 228.6704 0061186 197.6553 162.2528 14.53722070585747
IRIDIUM 33 DEB          
1 39778U 97051AAK 25235.87390899  .00002388  00000+0  57454-3 0  9994
2 39778  86.3731  91.3170 0009450  45.6293 314.5686 14.52944557590825
IRIDIUM 33 DEB          
1 39781U 97051AAN 25215.02215573  .00001477  00000+0  61200-3 0  9990
2 39781  86.3750 312.0582 0179275 328.5130 155.9116 14.17733960703518
IRIDIUM 33 DEB          
1 39783U 97051AAQ 25233.47791226  .00034974  00000+0  28069-2 0  9998
2 39783  86.1452 312.6233 0021161 203.3433 170.4193 14.99741045590897
IRIDIUM 33 DEB          
1 40996U 97051ABJ 25234.48383292  .00014195  00000+0  15679-2 0  9994
2 40996  86.3506  53.4291 0011083  89.7115 301.4804 14.87299703608156
IRIDIUM 33 DEB          
1 40998U 97051ABL 25227.92362594  .00001131  00000+0  32192-3 0  9995
2 40998  86.3811 104.4080 0009476 104.3055 266.2346 14.44479805 49660
IRIDIUM 33 DEB          
1 46435U 97051ABN 25235.28943259  .00007639  00000+0  25086-2 0  9990
2 46435  86.2811 241.6156 0213341 276.2917  99.7051 14.26087498 63259
IRIDIUM 33 DEB          
1 46734U 97051ABR 25234.25961034  .00001928  00000+0  59050-3 0  9993
2 46734  86.2601  52.1861 0040547 345.6380 194.4194 14.40825581613900
IRIDIUM 33 DEB          
1 46965U 97051ABX 25235.41290063  .00002449  00000+0  51470-3 0  9992
2 46965  86.3361  29.9860 0018952 349.7878  40.5153 14.59129202606447
IRIDIUM 33 DEB          
1 46972U 97051ACE 25233.36190706  .00001335  00000+0  33993-3 0  9998
2 46972  86.3816  88.2003 0010927 118.6851  60.8644 14.49924767599297
IRIDIUM 33 DEB          
1 46974U 97051ACG 25233.51322985  .00004989  00000+0  14611-2 0  9996
2 46974  86.3067 154.4983 0093427 198.5533 161.2254 14.41228442558769
IRIDIUM 33 DEB          
1 46979U 97051ACM 25234.88382391  .00013063  00000+0  17571-2 0  9990
2 46979  86.3364 100.0114 0030236 266.9903  92.7857 14.78840897337707
